,Interface,Access_VLAN,Active,Admin_Up,All_Prefixes,Allowed_VLANs,Auto_State_VLAN,Bandwidth,Blacklisted,Channel_Group,Channel_Group_Members,DHCP_Relay_Addresses,Declared_Names,Description,Encapsulation_VLAN,HSRP_Groups,HSRP_Version,Inactive_Reason,Incoming_Filter_Name,MLAG_ID,MTU,Native_VLAN,Outgoing_Filter_Name,PBR_Policy_Name,Primary_Address,Primary_Network,Proxy_ARP,Rip_Enabled,Rip_Passive,Spanning_Tree_Portfast,Speed,Switchport,Switchport_Mode,Switchport_Trunk_Encapsulation,VRF,VRRP_Groups,Zone_Name
0,core1[Ethernet1],,True,True,['10.0.0.1/30'],,True,1000000000.0,False,,[],[],['Ethernet1'],,,[],,,,,1500,,,,10.0.0.1/30,10.0.0.0/30,False,False,False,False,1000000000.0,False,NONE,DOT1Q,default,[],
1,core1[Ethernet2],,True,True,['10.0.1.1/30'],,True,1000000000.0,False,,[],[],['Ethernet2'],,,[],,,,,1500,,,,10.0.1.1/30,10.0.1.0/30,False,False,False,False,1000000000.0,False,NONE,DOT1Q,default,[],
2,core1[Ethernet3],1,True,True,[],,True,1000000000.0,False,,[],[],['Ethernet3'],,,[],,,,,1500,,,,,,False,False,False,False,1000000000.0,True,ACCESS,DOT1Q,default,[],
3,core1[Ethernet4],1,True,True,[],,True,1000000000.0,False,,[],[],['Ethernet4'],,,[],,,,,1500,,,,,,False,False,False,False,1000000000.0,True,ACCESS,DOT1Q,default,[],
4,core1[Management0],,False,True,['172.20.20.12/24'],,True,1000000000000.0,False,,[],[],['Management0'],,,[],,Ignored management interface,,,1500,,,,172.20.20.12/24,172.20.20.0/24,False,False,False,False,,False,NONE,DOT1Q,default,[],
5,core2[Ethernet1],,True,True,['10.1.0.1/30'],,True,1000000000.0,False,,[],[],['Ethernet1'],,,[],,,,,1500,,,,10.1.0.1/30,10.1.0.0/30,False,False,False,False,1000000000.0,False,NONE,DOT1Q,default,[],
6,core2[Ethernet2],,True,True,['10.1.1.1/30'],,True,1000000000.0,False,,[],[],['Ethernet2'],,,[],,,,,1500,,,,10.1.1.1/30,10.1.1.0/30,False,False,False,False,1000000000.0,False,NONE,DOT1Q,default,[],
7,core2[Ethernet3],1,True,True,[],,True,1000000000.0,False,,[],[],['Ethernet3'],,,[],,,,,1500,,,,,,False,False,False,False,1000000000.0,True,ACCESS,DOT1Q,default,[],
8,core2[Ethernet4],1,True,True,[],,True,1000000000.0,False,,[],[],['Ethernet4'],,,[],,,,,1500,,,,,,False,False,False,False,1000000000.0,True,ACCESS,DOT1Q,default,[],
9,core2[Management0],,False,True,['172.20.20.13/24'],,True,1000000000000.0,False,,[],[],['Management0'],,,[],,Ignored management interface,,,1500,,,,172.20.20.13/24,172.20.20.0/24,False,False,False,False,,False,NONE,DOT1Q,default,[],
10,edge1[Ethernet1],,True,True,['10.0.0.2/30'],,True,1000000000.0,False,,[],[],['Ethernet1'],,,[],,,,,1500,,,,10.0.0.2/30,10.0.0.0/30,False,False,False,False,1000000000.0,False,NONE,DOT1Q,default,[],
11,edge1[Ethernet2],,True,True,['10.1.0.2/30'],,True,1000000000.0,False,,[],[],['Ethernet2'],,,[],,,,,1500,,,,10.1.0.2/30,10.1.0.0/30,False,False,False,False,1000000000.0,False,NONE,DOT1Q,default,[],
12,edge1[Ethernet3],1,True,True,[],,True,1000000000.0,False,,[],[],['Ethernet3'],,,[],,,,,1500,,,,,,False,False,False,False,1000000000.0,True,ACCESS,DOT1Q,default,[],
13,edge1[Ethernet4],1,True,True,[],,True,1000000000.0,False,,[],[],['Ethernet4'],,,[],,,,,1500,,,,,,False,False,False,False,1000000000.0,True,ACCESS,DOT1Q,default,[],
14,edge1[Loopback0],,True,True,['10.0.100.1/32'],,True,8000000000.0,,,[],[],['Loopback0'],,,[],,,,,1500,,,,10.0.100.1/32,10.0.100.1/32,False,False,False,False,,False,NONE,DOT1Q,default,[],
15,edge1[Loopback100],,True,True,['11.0.0.1/32'],,True,8000000000.0,,,[],[],['Loopback100'],,,[],,,,,1500,,,,11.0.0.1/32,11.0.0.1/32,False,False,False,False,,False,NONE,DOT1Q,default,[],
16,edge1[Management0],,False,True,['172.20.20.11/24'],,True,1000000000000.0,False,,[],[],['Management0'],,,[],,Ignored management interface,,,1500,,,,172.20.20.11/24,172.20.20.0/24,False,False,False,False,,False,NONE,DOT1Q,default,[],
17,edge2[Ethernet1],,True,True,['10.0.1.2/30'],,True,1000000000.0,False,,[],[],['Ethernet1'],,,[],,,,,1500,,,,10.0.1.2/30,10.0.1.0/30,False,False,False,False,1000000000.0,False,NONE,DOT1Q,default,[],
18,edge2[Ethernet2],,True,True,['10.1.1.2/30'],,True,1000000000.0,False,,[],[],['Ethernet2'],,,[],,,,,1500,,,,10.1.1.2/30,10.1.1.0/30,False,False,False,False,1000000000.0,False,NONE,DOT1Q,default,[],
19,edge2[Ethernet3],1,True,True,[],,True,1000000000.0,False,,[],[],['Ethernet3'],,,[],,,,,1500,,,,,,False,False,False,False,1000000000.0,True,ACCESS,DOT1Q,default,[],
20,edge2[Ethernet4],1,True,True,[],,True,1000000000.0,False,,[],[],['Ethernet4'],,,[],,,,,1500,,,,,,False,False,False,False,1000000000.0,True,ACCESS,DOT1Q,default,[],
21,edge2[Loopback0],,True,True,['10.0.200.1/32'],,True,8000000000.0,,,[],[],['Loopback0'],,,[],,,,,1500,,,,10.0.200.1/32,10.0.200.1/32,False,False,False,False,,False,NONE,DOT1Q,default,[],
22,edge2[Loopback100],,True,True,['11.0.0.2/32'],,True,8000000000.0,,,[],[],['Loopback100'],,,[],,,,,1500,,,,11.0.0.2/32,11.0.0.2/32,False,False,False,False,,False,NONE,DOT1Q,default,[],
23,edge2[Management0],,False,True,['172.20.20.14/24'],,True,1000000000000.0,False,,[],[],['Management0'],,,[],,Ignored management interface,,,1500,,,,172.20.20.14/24,172.20.20.0/24,False,False,False,False,,False,NONE,DOT1Q,default,[],
